IRIDIUM 116             
1 43072U 17083C   24294.81031378  .00000972  00000+0  34013-3 0  9998
2 43072  86.4019 214.5530 0002293  81.7719 278.3736 14.34221840357544
IRIDIUM 130             
1 43073U 17083D   24294.84837062  .00000851  00000+0  29669-3 0  9993
2 43073  86.4029 214.7533 0002449  87.2672 272.8805 14.34222670357495
IRIDIUM 151             
1 43074U 17083E   24294.82299854 -.00000212  00000+0 -82938-4 0  9995
2 43074  86.4021 214.5921 0001965  79.1663 280.9754 14.34217127357516
IRIDIUM 134             
1 43075U 17083F   24294.86107714  .00001126  00000+0  39479-3 0  9997
2 43075  86.4021 214.5758 0002367  82.7324 277.4141 14.34218451357484
IRIDIUM 137             
1 43076U 17083G   24294.80396866 -.00000026  00000+0 -16333-4 0  9995
2 43076  86.4023 214.6802 0002290  69.1153 291.0287 14.34215614357540
IRIDIUM 141             
1 43077U 17083H   24295.35577762  .00000766  00000+0  26641-3 0  9994
2 43077  86.4020 214.3149 0002170  84.4625 275.6818 14.34217773357625
IRIDIUM 153             
1 43078U 17083J   24295.30795396  .00000570  00000+0  19662-3 0  9993
2 43078  86.4032 182.8658 0001602  95.9444 264.1935 14.34216283358728
IRIDIUM 131             
1 43079U 17083K   24294.85471911  .00001126  00000+0  39490-3 0  9996
2 43079  86.4025 214.6693 0002109  82.5336 277.6099 14.34223279357484
